NORAD_CAT_ID,OBJECT_NAME,OBJECT_TYPE,EPOCH,MEAN_MOTION,ECCENTRICITY,INCLINATION,RA_OF_ASC_NODE,ARG_OF_PERICENTER,MEAN_ANOMALY,BSTAR,MEAN_MOTION_DOT,MEAN_MOTION_DDOT,TLE_LINE0,TLE_LINE1,TLE_LINE2,SEMIMAJOR_AXIS,PERIOD,APOGEE,PERIGEE,DECAYED
52602.0,STARLINK-4012,PAYLOAD,2023-11-04 21:47:03,15.08845032,0.0001111,53.2156,160.876,91.404,268.7079,0.00062128,9.615e-05,0.0,0 STARLINK-4012,1 52602U 22052E   23308.90768484  .00009615  00000-0  62128-3 0  9991,2 52602  53.2156 160.8760 0001111  91.4040 268.7079 15.08845032 82464,6917.865,95.437,540.499,538.961,0.0
52602.0,STARLINK-4012,PAYLOAD,2023-11-05 07:19:22,15.08852837,0.0001137,53.2154,159.0917,86.5953,273.5169,0.00075245,0.00011712,0.0,0 STARLINK-4012,1 52602U 22052E   23309.30512282  .00011712  00000-0  75245-3 0  9994,2 52602  53.2154 159.0917 0001137  86.5953 273.5169 15.08852837 82524,6917.841,95.437,540.493,538.92,0.0
52602.0,STARLINK-4012,PAYLOAD,2023-11-05 20:02:27,15.08855083,0.0001153,53.2157,156.7131,86.2166,273.8958,0.00044776,6.848e-05,0.0,0 STARLINK-4012,1 52602U 22052E   23309.83503840  .00006848  00000-0  44776-3 0  9991,2 52602  53.2157 156.7131 0001153  86.2166 273.8958 15.08855083 82176,6917.834,95.437,540.497,538.902,0.0
52602.0,STARLINK-4012,PAYLOAD,2023-11-05 21:37:50,15.08872071,0.0001309,53.2157,156.4159,83.741,276.3731,0.00099167,0.00015543,0.0,0 STARLINK-4012,1 52602U 22052E   23309.90127565  .00015543  00000-0  99167-3 0  9991,2 52602  53.2157 156.4159 0001309  83.7410 276.3731 15.08872071 82612,6917.782,95.436,540.553,538.742,0.0
52602.0,STARLINK-4012,PAYLOAD,2023-11-06 07:10:08,15.08866895,0.0001457,53.2161,154.6318,86.77,273.3459,0.00061168,9.467e-05,0.0,0 STARLINK-4012,1 52602U 22052E   23310.29871192  .00009467  00000-0  61168-3 0  9995,2 52602  53.2161 154.6318 0001457  86.7700 273.3459 15.08866895 82243,6917.798,95.436,540.671,538.655,0.0
52602.0,STARLINK-4012,PAYLOAD,2023-11-06 19:53:13,15.08857554,0.0001203,53.2154,152.2525,93.2387,266.8743,0.00032002,4.811e-05,0.0,0 STARLINK-4012,1 52602U 22052E   23310.82862811  .00004811  00000-0  32002-3 0  9995,2 52602  53.2154 152.2525 0001203  93.2387 266.8743 15.08857554 82326,6917.827,95.436,540.524,538.86,0.0
52602.0,STARLINK-4012,PAYLOAD,2023-11-07 07:00:55,15.08840238,0.0001201,53.2163,150.1693,95.3881,264.7248,0.00016314,2.309e-05,0.0,0 STARLINK-4012,1 52602U 22052E   23311.29231256  .00002309  00000-0  16314-3 0  9998,2 52602  53.2163 150.1693 0001201  95.3881 264.7248 15.08840238 82394,6917.88,95.438,540.575,538.914,0.0
52602.0,STARLINK-4012,PAYLOAD,2023-11-07 19:44:02,15.08815174,0.0001379,53.2162,147.7915,88.4175,271.6975,-4.5255e-05,-1.008e-05,0.0,0 STARLINK-4012,1 52602U 22052E   23311.82224688 -.00001008  00000-0 -45255-4 0  9992,2 52602  53.2162 147.7915 0001379  88.4175 271.6975 15.08815174 82471,6917.956,95.439,540.775,538.867,0.0
52602.0,STARLINK-4012,PAYLOAD,2023-11-08 13:13:17,15.08823529,0.0001357,53.216,144.5209,81.6952,278.4194,0.00077668,0.00012089,0.0,0 STARLINK-4012,1 52602U 22052E   23312.55089951  .00012089  00000-0  77668-3 0  9996,2 52602  53.2160 144.5209 0001357  81.6952 278.4194 15.08823529 83016,6917.931,95.439,540.734,538.857,0.0
52602.0,STARLINK-4012,PAYLOAD,2023-11-08 19:34:50,15.08831858,0.0001442,53.2163,143.3313,84.1599,275.9558,0.00086213,0.00013456,0.0,0 STARLINK-4012,1 52602U 22052E   23312.81586117  .00013456  00000-0  86213-3 0  9996,2 52602  53.2163 143.3313 0001442  84.1599 275.9558 15.08831858 82628,6917.905,95.438,540.768,538.773,0.0
52602.0,STARLINK-4012,PAYLOAD,2023-11-09 13:04:04,15.08847291,0.0001485,53.2164,140.0609,86.3557,273.7605,0.00069711,0.00010826,0.0,0 STARLINK-4012,1 52602U 22052E   23313.54450080  .00010826  00000-0  69711-3 0  9998,2 52602  53.2164 140.0609 0001485  86.3557 273.7605 15.08847291 83163,6917.858,95.437,540.75,538.696,0.0
52602.0,STARLINK-4012,PAYLOAD,2023-11-09 19:25:37,15.08852873,0.0001455,53.2162,138.8708,84.9572,275.1586,0.00068429,0.00010623,0.0,0 STARLINK-4012,1 52602U 22052E   23313.80945869  .00010623  00000-0  68429-3 0  9991,2 52602  53.2162 138.8708 0001455  84.9572 275.1586 15.08852873 83205,6917.841,95.437,540.713,538.699,0.0
52602.0,STARLINK-4012,PAYLOAD,2023-11-10 04:57:55,15.08854769,0.000144,53.2158,137.0864,84.0071,276.1085,0.00046039,7.05e-05,0.0,0 STARLINK-4012,1 52602U 22052E   23314.20689552  .00007050  00000-0  46039-3 0  9993,2 52602  53.2158 137.0864 0001440  84.0071 276.1085 15.08854769 82832,6917.835,95.437,540.696,538.704,0.0
52602.0,STARLINK-4012,PAYLOAD,2023-11-10 19:16:23,15.08858045,0.0001428,53.2159,134.41,85.025,275.0906,0.00033567,5.061e-05,0.0,0 STARLINK-4012,1 52602U 22052E   23314.80304943  .00005061  00000-0  33567-3 0  9999,2 52602  53.2159 134.4100 0001428  85.0250 275.0906 15.08858045 83352,6917.825,95.436,540.678,538.702,0.0
52602.0,STARLINK-4012,PAYLOAD,2023-11-11 12:45:37,15.08842752,0.0001403,53.2154,131.1391,86.7127,273.4025,-0.0001318,-2.385e-05,0.0,0 STARLINK-4012,1 52602U 22052E   23315.53168856 -.00002385  00000-0 -13180-3 0  9998,2 52602  53.2154 131.1391 0001403  86.7127 273.4025 15.08842752 83461,6917.872,95.437,540.708,538.766,0.0
52602.0,STARLINK-4012,PAYLOAD,2023-11-11 19:07:10,15.0884548,0.0001395,53.2158,129.9495,86.0285,274.0867,3.9759e-06,-2.25e-06,0.0,0 STARLINK-4012,1 52602U 22052E   23315.79664930 -.00000225  00000-0  39759-5 0  9992,2 52602  53.2158 129.9495 0001395  86.0285 274.0867 15.08845480 83072,6917.864,95.437,540.694,538.764,0.0
52602.0,STARLINK-4012,PAYLOAD,2023-11-11 20:42:33,15.08844884,0.0001422,53.2158,129.6523,86.6988,273.4166,-1.4455e-05,-5.18e-06,0.0,0 STARLINK-4012,1 52602U 22052E   23315.86288870 -.00000518  00000-0 -14455-4 0  9996,2 52602  53.2158 129.6523 0001422  86.6988 273.4166 15.08844884 83519,6917.865,95.437,540.714,538.747,0.0
52602.0,STARLINK-4012,PAYLOAD,2023-11-12 11:01:02,15.08842069,0.0001474,53.218,126.9768,93.0469,267.0692,1.4507e-06,-2.65e-06,0.0,0 STARLINK-4012,1 52602U 22052E   23316.45905488 -.00000265  00000-0  14507-5 0  9990,2 52602  53.2180 126.9768 0001474  93.0469 267.0692 15.08842069 83176,6917.874,95.437,540.759,538.719,0.0
52602.0,STARLINK-4012,PAYLOAD,2023-11-12 18:57:58,15.08816735,0.0001629,53.2179,125.4899,96.2466,263.8712,0.00035472,5.358e-05,0.0,0 STARLINK-4012,1 52602U 22052E   23316.79026153  .00005358  00000-0  35472-3 0  9999,2 52602  53.2179 125.4899 0001629  96.2466 263.8712 15.08816735 83221,6917.952,95.439,540.943,538.69,0.0
52602.0,STARLINK-4012,PAYLOAD,2023-11-13 04:30:16,15.08842512,0.0001428,53.2179,123.7055,89.4602,270.6554,7.3904e-05,8.89e-06,0.0,0 STARLINK-4012,1 52602U 22052E   23317.18769194  .00000889  00000-0  73904-4 0  9999,2 52602  53.2179 123.7055 0001428  89.4602 270.6554 15.08842512 83287,6917.873,95.437,540.726,538.75,0.0
52602.0,STARLINK-4012,PAYLOAD,2023-11-13 20:24:07,15.08849761,0.000141,53.2176,120.7315,89.0387,271.0767,0.00014187,1.971e-05,0.0,0 STARLINK-4012,1 52602U 22052E   23317.85008400  .00001971  00000-0  14187-3 0  9999,2 52602  53.2176 120.7315 0001410  89.0387 271.0767 15.08849761 83810,6917.851,95.437,540.691,538.74,0.0
52602.0,STARLINK-4012,PAYLOAD,2023-11-14 10:42:36,15.08836997,0.0001423,53.2178,118.0561,88.0303,272.0853,7.8838e-05,9.67e-06,0.0,0 STARLINK-4012,1 52602U 22052E   23318.44625336  .00000967  00000-0  78838-4 0  9996,2 52602  53.2178 118.0561 0001423  88.0303 272.0853 15.08836997 83472,6917.89,95.438,540.739,538.77,0.0
52602.0,STARLINK-4012,PAYLOAD,2023-11-14 17:04:08,15.08838612,0.0001397,53.2175,116.8666,88.2732,271.842,8.6125e-05,1.083e-05,0.0,0 STARLINK-4012,1 52602U 22052E   23318.71121241  .00001083  00000-0  86125-4 0  9990,2 52602  53.2175 116.8666 0001397  88.2732 271.8420 15.08838612 83944,6917.885,95.438,540.716,538.783,0.0
52602.0,STARLINK-4012,PAYLOAD,2023-11-15 16:54:54,15.08868854,0.0001507,53.217,112.4067,78.9547,281.1615,-0.0004635,-7.663e-05,0.0,0 STARLINK-4012,1 52602U 22052E   23319.70480172 -.00007663  00000-0 -46350-3 0  9998,2 52602  53.2170 112.4067 0001507  78.9547 281.1615 15.08868854 83669,6917.792,95.436,540.7,538.615,0.0
52602.0,STARLINK-4012,PAYLOAD,2023-11-16 10:24:10,15.08838296,0.0001249,53.217,109.1353,90.1077,270.0058,8.2425e-05,1.024e-05,0.0,0 STARLINK-4012,1 52602U 22052E   23320.43345292  .00001024  00000-0  82425-4 0  9990,2 52602  53.2170 109.1353 0001249  90.1077 270.0058 15.08838296 83774,6917.886,95.438,540.615,538.887,0.0
52602.0,STARLINK-4012,PAYLOAD,2023-11-16 16:45:42,15.08839966,0.0001221,53.217,107.9458,89.7279,270.3853,9.3356e-05,1.198e-05,0.0,0 STARLINK-4012,1 52602U 22052E   23320.69841159  .00001198  00000-0  93356-4 0  9998,2 52602  53.2170 107.9458 0001221  89.7279 270.3853 15.08839966 84248,6917.88,95.438,540.59,538.901,0.0
52602.0,STARLINK-4012,PAYLOAD,2023-11-17 13:25:43,15.08838454,0.0001207,53.2176,104.0802,88.3388,271.7743,6.3998e-05,7.31e-06,0.0,0 STARLINK-4012,1 52602U 22052E   23321.55953472  .00000731  00000-0  63998-4 0  9997,2 52602  53.2176 104.0802 0001207  88.3388 271.7743 15.08838454 84373,6917.885,95.438,540.585,538.915,0.0
52602.0,STARLINK-4012,PAYLOAD,2023-11-17 16:36:29,15.08839513,0.0001165,53.2164,103.4839,87.3431,272.7694,7.5167e-05,9.09e-06,0.0,0 STARLINK-4012,1 52602U 22052E   23321.69201358  .00000909  00000-0  75167-4 0  9999,2 52602  53.2164 103.4839 0001165  87.3431 272.7694 15.08839513 83961,6917.882,95.438,540.553,538.941,0.0
52602.0,STARLINK-4012,PAYLOAD,2023-11-18 08:30:21,15.08837284,0.00012,53.2174,100.5114,87.6138,272.4991,1.6976e-05,-1.8e-07,0.0,0 STARLINK-4012,1 52602U 22052E   23322.35441818 -.00000018  00000-0  16976-4 0  9995,2 52602  53.2174 100.5114 0001200  87.6138 272.4991 15.08837284 84492,6917.889,95.438,540.584,538.924,0.0
52602.0,STARLINK-4012,PAYLOAD,2023-11-18 16:27:18,15.08804241,0.0001345,53.2168,99.0239,82.8522,277.2623,0.00046879,7.174e-05,0.0,0 STARLINK-4012,1 52602U 22052E   23322.68562759  .00007174  00000-0  46879-3 0  9992,2 52602  53.2168  99.0239 0001345  82.8522 277.2623 15.08804241 84110,6917.99,95.44,540.785,538.924,0.0
